{"fetched_at":"2026-03-29T16:36:15Z","count":15609,"tles":[{"name":"STARLINK-34546","line1":"1 64718U 25142Y   26087.90766943  .00005586  00000+0  47565-3 0  9990","line2":"2 64718  69.9998 265.8289 0003088 270.6827  89.3978 14.98324068 42532","category":"Starlink"}]}