{
  "norad_id": 64718,
  "name": "STARLINK-34546",
  "history": [
    {
      "epoch": "2026-03-28T21:47:02.638752Z",
      "apogee_km": 574.2204604550443,
      "perigee_km": 569.9280099961688,
      "latitude_deg": -1.6255131179451483e-05,
      "longitude_deg": 112.746523572538,
      "height_km": 574.4761811914171,
      "semi_major_axis_km": 6950.211235225606,
      "eccentricity": 0.0003088,
      "inclination_deg": 69.9998,
      "raan_deg": 265.8289,
      "arg_perigee_deg": 270.6827,
      "mean_anomaly_deg": 89.3978,
      "mean_motion_rev_day": 14.98324068
    }
  ]
}